LANDSAT 9               
1 49260U 21088A   24233.17100690  .00001436  00000+0  32899-3 0  9995
2 49260  98.2275 301.9766 0001208  89.1216 271.0121 14.57091178154014
